[{"OBJECT_NAME":"STARLINK-35846","OBJECT_ID":"2025-254V","EPOCH":"2026-03-09T17:01:50.596896","MEAN_MOTION":15.30210278,"ECCENTRICITY":0.00010302,"INCLINATION":53.1604,"RA_OF_ASC_NODE":232.0046,"ARG_OF_PERICENTER":136.8276,"MEAN_ANOMALY":223.2806,"EPHEMERIS_TYPE":0,"CLASSIFICATION_TYPE":"U","NORAD_CAT_ID":66367,"ELEMENT_SET_NO":999,"REV_AT_EPOCH":1898,"BSTAR":0.0014114954,"MEAN_MOTION_DOT":0.00041693,"MEAN_MOTION_DDOT":0},{"OBJECT_NAME":"TRANSPORTER-1 OBJECT AA","OBJECT_ID":"2021-006AA","EPOCH":"2026-03-09T22:58:14.761920","MEAN_MOTION":15.29982294,"ECCENTRICITY":0.00086604,"INCLINATION":97.2381,"RA_OF_ASC_NODE":112.457,"ARG_OF_PERICENTER":185.709,"MEAN_ANOMALY":174.4054,"EPHEMERIS_TYPE":0,"CLASSIFICATION_TYPE":"U","NORAD_CAT_ID":47437,"ELEMENT_SET_NO":999,"REV_AT_EPOCH":28414,"BSTAR":0.0002197941,"MEAN_MOTION_DOT":6.312e-5,"MEAN_MOTION_DDOT":0}]
